{"type": "FeatureCollection", "features": [ {"type": "Feature", "properties": {"norad_id": 43010, "name": "FENGYUN 3D", "group": "weather", "lat": 22.43916746812772, "lon": 128.3868643594076, "alt_km": 825.800369836029, "timestamp": "2025-12-04T10:51:49.749583+00:00", "meta": {"OBJECT_NAME": "FENGYUN 3D", "OBJECT_ID": "2017-072A", "EPOCH": "2025-12-04T05:03:05.383008", "MEAN_MOTION": 14.19680014, "ECCENTRICITY": 6.3e-05, "INCLINATION": 98.9881, "RA_OF_ASC_NODE": 304.3935, "ARG_OF_PERICENTER": 216.0501, "MEAN_ANOMALY": 144.0632, "EPHEMERIS_TYPE": 0, "CLASSIFICATION_TYPE": "U", "NORAD_CAT_ID": 43010, "ELEMENT_SET_NO": 999, "REV_AT_EPOCH": 41732, "BSTAR": 0.00012533, "MEAN_MOTION_DOT": 2.19e-06, "MEAN_MOTION_DDOT": 0}, "tle": {"line1": "1 43010U 17072A   25338.21047897  .00000219  00000+0  12533-3 0  9992", "line2": "2 43010  98.9881 304.3935 0000630 216.0501 144.0632 14.19680014417325"}}, "geometry": {"type": "Point", "coordinates": [128.3868643594076, 22.43916746812772]}}, {"type": "Feature", "properties": {"norad_id": 43013, "name": "NOAA 20 (JPSS-1)", "group": "weather", "lat": -45.041324620222376, "lon": -76.27813528139657, "alt_km": 834.8629894663682, "timestamp": "2025-12-04T10:51:49.749595+00:00", "meta": {"OBJECT_NAME": "NOAA 20 (JPSS-1)", "OBJECT_ID": "2017-073A", "EPOCH": "2025-12-04T02:37:13.996128", "MEAN_MOTION": 14.19522201, "ECCENTRICITY": 0.0002074, "INCLINATION": 98.7586, "RA_OF_ASC_NODE": 274.5009, "ARG_OF_PERICENTER": 99.6938, "MEAN_ANOMALY": 260.4473, "EPHEMERIS_TYPE": 0, "CLASSIFICATION_TYPE": "U", "NORAD_CAT_ID": 43013, "ELEMENT_SET_NO": 999, "REV_AT_EPOCH": 41679, "BSTAR": 0.00010786, "MEAN_MOTION_DOT": 1.83e-06, "MEAN_MOTION_DDOT": 0}, "tle": {"line1": "1 43013U 17073A   25338.10918977  .00000183  00000+0  10786-3 0  9998", "line2": "2 43013  98.7586 274.5009 0002074  99.6938 260.4473 14.19522201416790"}}, "geometry": {"type": "Point", "coordinates": [-76.27813528139657, -45.041324620222376]}}, {"type": "Feature", "properties": {"norad_id": 43226, "name": "GOES 17", "group": "weather", "lat": 0.3671025059975985, "lon": 146.92926103677135, "alt_km": 35794.36326669826, "timestamp": "2025-12-04T10:51:49.749606+00:00", "meta": {"OBJECT_NAME": "GOES 17", "OBJECT_ID": "2018-022A", "EPOCH": "2025-12-04T01:18:56.681280", "MEAN_MOTION": 1.00271254, "ECCENTRICITY": 0.0003456, "INCLINATION": 0.4357, "RA_OF_ASC_NODE": 89.3075, "ARG_OF_PERICENTER": 181.7095, "MEAN_ANOMALY": 92.3543, "EPHEMERIS_TYPE": 0, "CLASSIFICATION_TYPE": "U", "NORAD_CAT_ID": 43226, "ELEMENT_SET_NO": 999, "REV_AT_EPOCH": 2846, "BSTAR": 0, "MEAN_MOTION_DOT": -1.66e-06, "MEAN_MOTION_DDOT": 0}, "tle": {"line1": "1 43226U 18022A   25338.05482270 -.00000166  00000+0  00000+0 0  9991", "line2": "2 43226   0.4357  89.3075 0003456 181.7095  92.3543  1.00271254 28467"}}, "geometry": {"type": "Point", "coordinates": [146.92926103677135, 0.3671025059975985]}}, {"type": "Feature", "properties": {"norad_id": 43491, "name": "FENGYUN 2H", "group": "weather", "lat": -2.0619795302465436, "lon": -44.16807687327999, "alt_km": 35782.52606488689, "timestamp": "2025-12-04T10:51:49.749622+00:00", "meta": {"OBJECT_NAME": "FENGYUN 2H", "OBJECT_ID": "2018-050A", "EPOCH": "2025-12-04T02:07:07.068000", "MEAN_MOTION": 1.00271345, "ECCENTRICITY": 0.0002919, "INCLINATION": 2.5269, "RA_OF_ASC_NODE": 81.4248, "ARG_OF_PERICENTER": 163.0069, "MEAN_ANOMALY": 299.8746, "EPHEMERIS_TYPE": 0, "CLASSIFICATION_TYPE": "U", "NORAD_CAT_ID": 43491, "ELEMENT_SET_NO": 999, "REV_AT_EPOCH": 2748, "BSTAR": 0, "MEAN_MOTION_DOT": -1.15e-06, "MEAN_MOTION_DDOT": 0}, "tle": {"line1": "1 43491U 18050A   25338.08827625 -.00000115  00000+0  00000+0 0  9990", "line2": "2 43491   2.5269  81.4248 0002919 163.0069 299.8746  1.00271345 27489"}}, "geometry": {"type": "Point", "coordinates": [-44.16807687327999, -2.0619795302465436]}}, {"type": "Feature", "properties": {"norad_id": 43689, "name": "METOP-C", "group": "weather", "lat": 35.91354014398735, "lon": 29.98617390806137, "alt_km": 816.5967652539057, "timestamp": "2025-12-04T10:51:49.749641+00:00", "meta": {"OBJECT_NAME": "METOP-C", "OBJECT_ID": "2018-087A", "EPOCH": "2025-12-04T03:56:09.568032", "MEAN_MOTION": 14.21506965, "ECCENTRICITY": 0.0001677, "INCLINATION": 98.6942, "RA_OF_ASC_NODE": 36.0645, "ARG_OF_PERICENTER": 56.3157, "MEAN_ANOMALY": 303.818, "EPHEMERIS_TYPE": 0, "CLASSIFICATION_TYPE": "U", "NORAD_CAT_ID": 43689, "ELEMENT_SET_NO": 999, "REV_AT_EPOCH": 36712, "BSTAR": 0.00015912, "MEAN_MOTION_DOT": 3.05e-06, "MEAN_MOTION_DDOT": 0}, "tle": {"line1": "1 43689U 18087A   25338.16399963  .00000305  00000+0  15912-3 0  9999", "line2": "2 43689  98.6942  36.0645 0001677  56.3157 303.8180 14.21506965367123"}}, "geometry": {"type": "Point", "coordinates": [29.98617390806137, 35.91354014398735]}}, {"type": "Feature", "properties": {"norad_id": 43823, "name": "GEO-KOMPSAT-2A", "group": "weather", "lat": -0.034887674580475744, "lon": 4.721483608429069, "alt_km": 35788.70483280022, "timestamp": "2025-12-04T10:51:49.749653+00:00", "meta": {"OBJECT_NAME": "GEO-KOMPSAT-2A", "OBJECT_ID": "2018-100A", "EPOCH": "2025-12-03T17:35:40.686720", "MEAN_MOTION": 1.00269729, "ECCENTRICITY": 5.41e-05, "INCLINATION": 0.0596, "RA_OF_ASC_NODE": 121.241, "ARG_OF_PERICENTER": 95.287, "MEAN_ANOMALY": 248.4703, "EPHEMERIS_TYPE": 0, "CLASSIFICATION_TYPE": "U", "NORAD_CAT_ID": 43823, "ELEMENT_SET_NO": 999, "REV_AT_EPOCH": 2567, "BSTAR": 0, "MEAN_MOTION_DOT": -3.26e-06, "MEAN_MOTION_DDOT": 0}, "tle": {"line1": "1 43823U 18100A   25337.73310980 -.00000326  00000+0  00000+0 0  9991", "line2": "2 43823   0.0596 121.2410 0000541  95.2870 248.4703  1.00269729 25678"}}, "geometry": {"type": "Point", "coordinates": [4.721483608429069, -0.034887674580475744]}}, {"type": "Feature", "properties": {"norad_id": 44387, "name": "METEOR-M2 2", "group": "weather", "lat": 26.934135224582196, "lon": -46.48401044182813, "alt_km": 810.2774564604388, "timestamp": "2025-12-04T10:51:49.749665+00:00", "meta": {"OBJECT_NAME": "METEOR-M2 2", "OBJECT_ID": "2019-038A", "EPOCH": "2025-12-04T05:40:41.038176", "MEAN_MOTION": 14.24285962, "ECCENTRICITY": 9.19e-05, "INCLINATION": 98.8964, "RA_OF_ASC_NODE": 317.8618, "ARG_OF_PERICENTER": 165.2797, "MEAN_ANOMALY": 194.8408, "EPHEMERIS_TYPE": 0, "CLASSIFICATION_TYPE": "U", "NORAD_CAT_ID": 44387, "ELEMENT_SET_NO": 999, "REV_AT_EPOCH": 33354, "BSTAR": 0.0001662, "MEAN_MOTION_DOT": 3.38e-06, "MEAN_MOTION_DDOT": 0}, "tle": {"line1": "1 44387U 19038A   25338.23658609  .00000338  00000+0  16620-3 0  9998", "line2": "2 44387  98.8964 317.8618 0000919 165.2797 194.8408 14.24285962333547"}}, "geometry": {"type": "Point", "coordinates": [-46.48401044182813, 26.934135224582196]}}, {"type": "Feature", "properties": {"norad_id": 47719, "name": "ARKTIKA-M 1", "group": "weather", "lat": 55.41973634732097, "lon": -142.0180929369952, "alt_km": 31217.780329634083, "timestamp": "2025-12-04T10:51:49.749678+00:00", "meta": {"OBJECT_NAME": "ARKTIKA-M 1", "OBJECT_ID": "2021-016A", "EPOCH": "2025-12-01T02:41:41.634816", "MEAN_MOTION": 2.00613156, "ECCENTRICITY": 0.71974708, "INCLINATION": 63.1756, "RA_OF_ASC_NODE": 85.6045, "ARG_OF_PERICENTER": 269.084, "MEAN_ANOMALY": 15.7076, "EPHEMERIS_TYPE": 0, "CLASSIFICATION_TYPE": "U", "NORAD_CAT_ID": 47719, "ELEMENT_SET_NO": 999, "REV_AT_EPOCH": 3481, "BSTAR": 0, "MEAN_MOTION_DOT": -1.2e-07, "MEAN_MOTION_DDOT": 0}, "tle": {"line1": "1 47719U 21016A   25335.11228744 -.00000012  00000+0  00000+0 0  9997", "line2": "2 47719  63.1756  85.6045 7197470 269.0840  15.7076  2.00613156 34816"}}, "geometry": {"type": "Point", "coordinates": [-142.0180929369952, 55.41973634732097]}}, {"type": "Feature", "properties": {"norad_id": 49008, "name": "FENGYUN 3E", "group": "weather", "lat": 60.55227216421871, "lon": 174.8983972523881, "alt_km": 820.3347497875702, "timestamp": "2025-12-04T10:51:49.749690+00:00", "meta": {"OBJECT_NAME": "FENGYUN 3E", "OBJECT_ID": "2021-062A", "EPOCH": "2025-12-04T03:32:39.211584", "MEAN_MOTION": 14.19878267, "ECCENTRICITY": 7.29e-05, "INCLINATION": 98.7476, "RA_OF_ASC_NODE": 338.7708, "ARG_OF_PERICENTER": 321.2683, "MEAN_ANOMALY": 38.8441, "EPHEMERIS_TYPE": 0, "CLASSIFICATION_TYPE": "U", "NORAD_CAT_ID": 49008, "ELEMENT_SET_NO": 999, "REV_AT_EPOCH": 22890, "BSTAR": 5.5387e-05, "MEAN_MOTION_DOT": 7.4e-07, "MEAN_MOTION_DDOT": 0}, "tle": {"line1": "1 49008U 21062A   25338.14767606  .00000074  00000+0  55387-4 0  9992", "line2": "2 49008  98.7476 338.7708 0000729 321.2683  38.8441 14.19878267228905"}}, "geometry": {"type": "Point", "coordinates": [174.8983972523881, 60.55227216421871]}}, {"type": "Feature", "properties": {"norad_id": 51850, "name": "GOES 18", "group": "weather", "lat": 0.0020784132890982955, "lon": 99.45863446751127, "alt_km": 35789.76937538616, "timestamp": "2025-12-04T10:51:49.749702+00:00", "meta": {"OBJECT_NAME": "GOES 18", "OBJECT_ID": "2022-021A", "EPOCH": "2025-12-04T01:05:20.483808", "MEAN_MOTION": 1.00270632, "ECCENTRICITY": 8.22e-05, "INCLINATION": 0.0019, "RA_OF_ASC_NODE": 52.2541, "ARG_OF_PERICENTER": 238.576, "MEAN_ANOMALY": 21.6264, "EPHEMERIS_TYPE": 0, "CLASSIFICATION_TYPE": "U", "NORAD_CAT_ID": 51850, "ELEMENT_SET_NO": 999, "REV_AT_EPOCH": 463, "BSTAR": 0, "MEAN_MOTION_DOT": 1.13e-06, "MEAN_MOTION_DDOT": 0}, "tle": {"line1": "1 51850U 22021A   25338.04537597  .00000113  00000+0  00000+0 0  9990", "line2": "2 51850   0.0019  52.2541 0000822 238.5760  21.6264  1.00270632  4638"}}, "geometry": {"type": "Point", "coordinates": [99.45863446751127, 0.0020784132890982955]}}]}